OBJECT_NAME,OBJECT_ID,EPOCH,MEAN_MOTION,ECCENTRICITY,INCLINATION,RA_OF_ASC_NODE,ARG_OF_PERICENTER,MEAN_ANOMALY,EPHEMERIS_TYPE,CLASSIFICATION_TYPE,NORAD_CAT_ID,ELEMENT_SET_NO,REV_AT_EPOCH,BSTAR,MEAN_MOTION_DOT,MEAN_MOTION_DDOT
SAUDISAT 1C (SO-50),2002-058C,2026-06-05T08:30:32.361408,14.83020070,.0075495,64.5503,165.5947,264.6340,94.6150,0,U,27607,999,26270,.13927E-3,.1035E-4,0
SAUDISAT 2,2004-025F,2026-06-05T19:58:56.689248,14.56677195,.0024153,98.5506,156.5213,334.3740,25.6258,0,U,28371,999,16409,.84964E-4,.331E-5,0
SAUDISAT 3,2007-012B,2026-06-05T10:13:50.958336,14.71418542,.0013251,98.1451,106.8196,264.7052,95.2643,0,U,31118,999,2601,.60586E-4,.324E-5,0
PISAT,2016-059B,2026-06-05T18:26:49.873056,14.68963280,.0027645,97.8178,157.7123,240.6103,119.2342,0,U,41784,999,51806,.18231E-3,.1026E-4,0
FLYING LAPTOP,2017-042G,2026-06-05T20:28:56.870400,15.01069506,.0018922,97.4646,312.8268,158.7410,201.4605,0,U,42831,999,48475,.30387E-3,.3843E-4,0
SALSAT,2020-068K,2026-06-05T12:02:50.088768,15.29623212,.000921,97.8853,158.8572,354.5258,5.5879,0,U,46495,999,31357,.29742E-3,.8465E-4,0
